start=new Date('2022-12-22T00:00:00.000Z').valueOf();
sats=[{"TLE_LINE1":"1 46677U 20073H   22355.63422879 -.00001804  00000-0 -10229-3 0  9992","BSTAR":"-0.00010229000000","PERIAPSIS":"546.095","OBJECT_TYPE":"PAYLOAD","LAUNCH_DATE":"2020-10-18","REV_AT_EPOCH":"12065","APOAPSIS":"548.402","COUNTRY_CODE":"US","TLE_LINE2":"2 46677  53.0568 112.1633 0001666  56.4309 303.6839 15.06388654120654","CENTER_NAME":"EARTH","FILE":"3716933","SEMIMAJOR_AXIS":"6925.383","INCLINATION":"53.0568","OBJECT_NAME":"STARLINK-1766","SITE":"AFETR","OBJECT_ID":"2020-073H","MEAN_MOTION":"15.06388654","GP_ID":"221126674","MEAN_MOTION_DDOT":"0.0000000000000","ECCENTRICITY":"0.00016660","EPHEMERIS_TYPE":"0","MEAN_ELEMENT_THEORY":"SGP4","PERIOD":"95.593","MEAN_ANOMALY":"303.6839","MEAN_MOTION_DOT":"-0.00001804","RA_OF_ASC_NODE":"112.1633","ARG_OF_PERICENTER":"56.4309","TIME_SYSTEM":"UTC","REF_FRAME":"TEME","DECAY_DATE":null,"ELEMENT_SET_NO":"999","EPOCH":"2022-12-21T15:13:17.367456","NORAD_CAT_ID":"46677","CLASSIFICATION_TYPE":"U","RCS_SIZE":"LARGE"},{"NORAD_CAT_ID":"46679","EPOCH":"2022-12-21T13:45:42.525504","CLASSIFICATION_TYPE":"U","RCS_SIZE":"LARGE","TIME_SYSTEM":"UTC","MEAN_MOTION_DOT":"-0.00001065","ARG_OF_PERICENTER":"51.2229","RA_OF_ASC_NODE":"92.4283","DECAY_DATE":null,"REF_FRAME":"TEME","ELEMENT_SET_NO":"999","EPHEMERIS_TYPE":"0","MEAN_ELEMENT_THEORY":"SGP4","MEAN_ANOMALY":"308.8921","PERIOD":"95.593","ECCENTRICITY":"0.00017970","GP_ID":"221115255","MEAN_MOTION":"15.06386946","MEAN_MOTION_DDOT":"0.0000000000000","INCLINATION":"53.0552","SEMIMAJOR_AXIS":"6925.389","OBJECT_ID":"2020-073K","OBJECT_NAME":"STARLINK-1773","SITE":"AFETR","TLE_LINE2":"2 46679  53.0552  92.4283 0001797  51.2229 308.8921 15.06386946120447","FILE":"3716551","CENTER_NAME":"EARTH","COUNTRY_CODE":"US","APOAPSIS":"548.498","PERIAPSIS":"546.009","TLE_LINE1":"1 46679U 20073K   22355.57340886 -.00001065  00000-0 -52618-4 0  9992","BSTAR":"-0.00005261800000","REV_AT_EPOCH":"12044","OBJECT_TYPE":"PAYLOAD","LAUNCH_DATE":"2020-10-18"},{"NORAD_CAT_ID":"46680","EPOCH":"2022-12-21T15:24:34.143840","CLASSIFICATION_TYPE":"U","RCS_SIZE":"LARGE","TIME_SYSTEM":"UTC","MEAN_MOTION_DOT":"0.00001366","RA_OF_ASC_NODE":"127.1271","ARG_OF_PERICENTER":"91.0192","REF_FRAME":"TEME","DECAY_DATE":null,"ELEMENT_SET_NO":"999","EPHEMERIS_TYPE":"0","MEAN_ELEMENT_THEORY":"SGP4","MEAN_ANOMALY":"269.0937","PERIOD":"95.593","ECCENTRICITY":"0.00012230","MEAN_MOTION":"15.06388284","GP_ID":"221126677","MEAN_MOTION_DDOT":"0.0000000000000","INCLINATION":"53.0540","SEMIMAJOR_AXIS":"6925.384","OBJECT_ID":"2020-073L","OBJECT_NAME":"STARLINK-1774","SITE":"AFETR","TLE_LINE2":"2 46680  53.0540 127.1271 0001223  91.0192 269.0937 15.06388284120446","FILE":"3716933","CENTER_NAME":"EARTH","COUNTRY_CODE":"US","APOAPSIS":"548.096","PERIAPSIS":"546.402","TLE_LINE1":"1 46680U 20073L   22355.64206185  .00001366  00000-0  11062-3 0  9994","BSTAR":"0.00011062000000","REV_AT_EPOCH":"12044","LAUNCH_DATE":"2020-10-18","OBJECT_TYPE":"PAYLOAD"},{"REV_AT_EPOCH":"12045","LAUNCH_DATE":"2020-10-18","OBJECT_TYPE":"PAYLOAD","PERIAPSIS":"545.830","TLE_LINE1":"1 46681U 20073M   22355.74526866 -.00000977  00000-0 -46696-4 0  9998","BSTAR":"-0.00004669600000","COUNTRY_CODE":"US","APOAPSIS":"548.701","FILE":"3716933","CENTER_NAME":"EARTH","TLE_LINE2":"2 46681  53.0555 126.6654 0002073  53.4879 306.6300 15.06383073120454","OBJECT_ID":"2020-073M","OBJECT_NAME":"STARLINK-1775","SITE":"AFETR","INCLINATION":"53.0555","SEMIMAJOR_AXIS":"6925.400","ECCENTRICITY":"0.00020730","GP_ID":"221126906","MEAN_MOTION":"15.06383073","MEAN_MOTION_DDOT":"0.0000000000000","MEAN_ANOMALY":"306.6300","PERIOD":"95.593","EPHEMERIS_TYPE":"0","MEAN_ELEMENT_THEORY":"SGP4","REF_FRAME":"TEME","DECAY_DATE":null,"ELEMENT_SET_NO":"999","TIME_SYSTEM":"UTC","MEAN_MOTION_DOT":"-0.00000977","RA_OF_ASC_NODE":"126.6654","ARG_OF_PERICENTER":"53.4879","CLASSIFICATION_TYPE":"U","RCS_SIZE":"LARGE","NORAD_CAT_ID":"46681","EPOCH":"2022-12-21T17:53:11.212224"},{"CLASSIFICATION_TYPE":"U","RCS_SIZE":"LARGE","EPOCH":"2022-12-21T12:08:10.570560","NORAD_CAT_ID":"46682","REF_FRAME":"TEME","DECAY_DATE":null,"ELEMENT_SET_NO":"999","MEAN_MOTION_DOT":"-0.00000973","ARG_OF_PERICENTER":"57.4923","RA_OF_ASC_NODE":"127.7432","TIME_SYSTEM":"UTC","PERIOD":"95.593","MEAN_ANOMALY":"302.6206","EPHEMERIS_TYPE":"0","MEAN_ELEMENT_THEORY":"SGP4","GP_ID":"221114007","MEAN_MOTION":"15.06390880","MEAN_MOTION_DDOT":"0.0000000000000","ECCENTRICITY":"0.00014550","OBJECT_NAME":"STARLINK-1776","SITE":"AFETR","OBJECT_ID":"2020-073N","SEMIMAJOR_AXIS":"6925.377","INCLINATION":"53.0537","CENTER_NAME":"EARTH","FILE":"3716551","TLE_LINE2":"2 46682  53.0537 127.7432 0001455  57.4923 302.6206 15.06390880119945","APOAPSIS":"548.249","COUNTRY_CODE":"US","OBJECT_TYPE":"PAYLOAD","LAUNCH_DATE":"2020-10-18","REV_AT_EPOCH":"11994","TLE_LINE1":"1 46682U 20073N   22355.50567790 -.00000973  00000-0 -46475-4 0  9995","BSTAR":"-0.00004647500000","PERIAPSIS":"546.234"},{"APOAPSIS":"547.927","COUNTRY_CODE":"US","BSTAR":"0.00058529000000","TLE_LINE1":"1 46684U 20073Q   22355.36148423  .00008441  00000-0  58529-3 0  9997","PERIAPSIS":"546.653","OBJECT_TYPE":"PAYLOAD","LAUNCH_DATE":"2020-10-18","REV_AT_EPOCH":"12013","SEMIMAJOR_AXIS":"6925.425","INCLINATION":"53.0532","SITE":"AFETR","OBJECT_NAME":"STARLINK-1780","OBJECT_ID":"2020-073Q","TLE_LINE2":"2 46684  53.0532 113.3959 0000920  43.5477 316.5584 15.06374991120134","CENTER_NAME":"EARTH","FILE":"3716551","MEAN_ELEMENT_THEORY":"SGP4","EPHEMERIS_TYPE":"0","PERIOD":"95.594","MEAN_ANOMALY":"316.5584","MEAN_MOTION_DDOT":"0.0000000000000","GP_ID":"221114757","MEAN_MOTION":"15.06374991","ECCENTRICITY":"0.00009200","EPOCH":"2022-12-21T08:40:32.237472","NORAD_CAT_ID":"46684","RCS_SIZE":"LARGE","CLASSIFICATION_TYPE":"U","ARG_OF_PERICENTER":"43.5477","RA_OF_ASC_NODE":"113.3959","MEAN_MOTION_DOT":"0.00008441","TIME_SYSTEM":"UTC","ELEMENT_SET_NO":"999","REF_FRAME":"TEME","DECAY_DATE":null},{"REF_FRAME":"TEME","DECAY_DATE":null,"ELEMENT_SET_NO":"999","MEAN_MOTION_DOT":"-0.00000262","ARG_OF_PERICENTER":"75.5891","RA_OF_ASC_NODE":"130.7981","TIME_SYSTEM":"UTC","CLASSIFICATION_TYPE":"U","RCS_SIZE":"LARGE","EPOCH":"2022-12-20T19:39:34.631712","NORAD_CAT_ID":"46685","MEAN_MOTION":"15.06402636","GP_ID":"221115007","MEAN_MOTION_DDOT":"0.0000000000000","ECCENTRICITY":"0.00014070","PERIOD":"95.592","MEAN_ANOMALY":"284.5254","EPHEMERIS_TYPE":"0","MEAN_ELEMENT_THEORY":"SGP4","CENTER_NAME":"EARTH","FILE":"3716551","TLE_LINE2":"2 46685  53.0556 130.7981 0001407  75.5891 284.5254 15.06402636119836","OBJECT_NAME":"STARLINK-1781","SITE":"AFETR","OBJECT_ID":"2020-073R","SEMIMAJOR_AXIS":"6925.340","INCLINATION":"53.0556","OBJECT_TYPE":"PAYLOAD","LAUNCH_DATE":"2020-10-18","REV_AT_EPOCH":"11983","TLE_LINE1":"1 46685U 20073R   22354.81915083 -.00000262  00000-0  13093-5 0  9994","BSTAR":"0.00000130930000","PERIAPSIS":"546.231","APOAPSIS":"548.180","COUNTRY_CODE":"US"},{"EPHEMERIS_TYPE":"0","MEAN_ELEMENT_THEORY":"SGP4","PERIOD":"95.593","MEAN_ANOMALY":"301.2833","MEAN_MOTION":"15.06389552","GP_ID":"221129981","MEAN_MOTION_DDOT":"0.0000000000000","ECCENTRICITY":"0.00016180","EPOCH":"2022-12-21T15:49:43.772160","NORAD_CAT_ID":"46686","CLASSIFICATION_TYPE":"U","RCS_SIZE":"LARGE","MEAN_MOTION_DOT":"-0.00001325","RA_OF_ASC_NODE":"127.0017","ARG_OF_PERICENTER":"58.8314","TIME_SYSTEM":"UTC","DECAY_DATE":null,"REF_FRAME":"TEME","ELEMENT_SET_NO":"999","APOAPSIS":"548.366","COUNTRY_CODE":"US","TLE_LINE1":"1 46686U 20073S   22355.65953440 -.00001325  00000-0 -70077-4 0  9993","BSTAR":"-0.00007007700000","PERIAPSIS":"546.125","LAUNCH_DATE":"2020-10-18","OBJECT_TYPE":"PAYLOAD","REV_AT_EPOCH":"12044","SEMIMAJOR_AXIS":"6925.381","INCLINATION":"53.0530","OBJECT_NAME":"STARLINK-1783","SITE":"AFETR","OBJECT_ID":"2020-073S","TLE_LINE2":"2 46686  53.0530 127.0017 0001618  58.8314 301.2833 15.06389552120446","CENTER_NAME":"EARTH","FILE":"3717070"},{"EPHEMERIS_TYPE":"0","MEAN_ELEMENT_THEORY":"SGP4","MEAN_ANOMALY":"317.3948","PERIOD":"95.593","ECCENTRICITY":"0.00021300","GP_ID":"221082950","MEAN_MOTION":"15.06392101","MEAN_MOTION_DDOT":"0.0000000000000","NORAD_CAT_ID":"46687","EPOCH":"2022-12-21T10:50:33.184608","CLASSIFICATION_TYPE":"U","RCS_SIZE":"LARGE","TIME_SYSTEM":"UTC","MEAN_MOTION_DOT":"-0.00002149","RA_OF_ASC_NODE":"92.9847","ARG_OF_PERICENTER":"42.7207","DECAY_DATE":null,"REF_FRAME":"TEME","ELEMENT_SET_NO":"999","COUNTRY_CODE":"US","APOAPSIS":"548.713","PERIAPSIS":"545.763","TLE_LINE1":"1 46687U 20073T   22355.45177297 -.00002149  00000-0 -12539-3 0  9993","BSTAR":"-0.00012539000000","REV_AT_EPOCH":"12090","LAUNCH_DATE":"2020-10-18","OBJECT_TYPE":"PAYLOAD","INCLINATION":"53.0561","SEMIMAJOR_AXIS":"6925.373","OBJECT_ID":"2020-073T","OBJECT_NAME":"STARLINK-1784","SITE":"AFETR","TLE_LINE2":"2 46687  53.0561  92.9847 0002130  42.7207 317.3948 15.06392101120905","FILE":"3715974","CENTER_NAME":"EARTH"},{"APOAPSIS":"548.227","COUNTRY_CODE":"US","OBJECT_TYPE":"PAYLOAD","LAUNCH_DATE":"2020-10-18","REV_AT_EPOCH":"12045","BSTAR":"-0.00004884000000","TLE_LINE1":"1 46689U 20073V   22355.74157925 -.00001009  00000-0 -48840-4 0  9992","PERIAPSIS":"546.282","SITE":"AFETR","OBJECT_NAME":"STARLINK-1788","OBJECT_ID":"2020-073V","SEMIMAJOR_AXIS":"6925.390","INCLINATION":"53.0546","CENTER_NAME":"EARTH","FILE":"3716934","TLE_LINE2":"2 46689  53.0546 126.6742 0001404  68.0966 292.0172 15.06386606120456","PERIOD":"95.593","MEAN_ANOMALY":"292.0172","MEAN_ELEMENT_THEORY":"SGP4","EPHEMERIS_TYPE":"0","MEAN_MOTION_DDOT":"0.0000000000000","MEAN_MOTION":"15.06386606","GP_ID":"221126747","ECCENTRICITY":"0.00014040","RCS_SIZE":"LARGE","CLASSIFICATION_TYPE":"U","EPOCH":"2022-12-21T17:47:52.447200","NORAD_CAT_ID":"46689","ELEMENT_SET_NO":"999","REF_FRAME":"TEME","DECAY_DATE":null,"ARG_OF_PERICENTER":"68.0966","RA_OF_ASC_NODE":"126.6742","MEAN_MOTION_DOT":"-0.00001009","TIME_SYSTEM":"UTC"}];
